OBJECT_NAME,OBJECT_ID,EPOCH,MEAN_MOTION,ECCENTRICITY,INCLINATION,RA_OF_ASC_NODE,ARG_OF_PERICENTER,MEAN_ANOMALY,EPHEMERIS_TYPE,CLASSIFICATION_TYPE,NORAD_CAT_ID,ELEMENT_SET_NO,REV_AT_EPOCH,BSTAR,MEAN_MOTION_DOT,MEAN_MOTION_DDOT
STARLINK-35719,2025-303W,2026-07-01T15:04:05.645568,15.27607051,.00013418,43.0031,26.9783,255.3996,104.6707,0,U,67183,999,3016,.10107752E-2,.2768E-3,0
STARLINK-35910,2025-303X,2026-07-01T14:49:17.628096,15.27596550,.00014342,43.0028,26.9016,268.4317,91.6371,0,U,67184,999,3016,.73122933E-3,.19924E-3,0
STARLINK-35859,2025-303Y,2026-07-01T14:56:41.549568,15.27592459,.00012326,43.0025,26.9387,266.1532,93.9179,0,U,67185,999,3016,.90586981E-3,.24759E-3,0
STARLINK-35857,2025-303Z,2026-07-01T20:01:22.011456,15.27627801,.00012096,42.9985,25.9434,223.3960,136.6797,0,U,67186,999,3019,.80521915E-3,.21994E-3,0
STARLINK-35880,2025-303AA,2026-07-01T15:07:47.551008,15.27609363,.00013378,43.0013,26.9955,251.8841,108.1865,0,U,67187,999,3016,.80759783E-3,.22048E-3,0
STARLINK-35675,2025-303AB,2026-07-01T14:47:39.117408,15.27597077,.00009006,42.9987,27.7543,262.0545,98.0205,0,U,67188,999,3015,.10017186E-2,.2742E-3,0
STARLINK-35889,2025-303AC,2026-07-01T20:55:01.275456,15.27601793,.00012971,43.0014,26.2298,274.2886,85.7817,0,U,67189,999,3019,.84121545E-3,.22974E-3,0
STARLINK-35888,2025-303AD,2026-07-02T06:05:09.885696,15.27575705,.00008778,42.9978,23.9355,25.8423,334.2472,0,U,67190,999,3025,.6782014E-3,.18445E-3,0
STARLINK-35716,2025-303AE,2026-07-01T21:02:25.387872,15.27603014,.00013093,43.0022,26.2668,270.8406,89.2296,0,U,67191,999,3019,.10394216E-2,.28471E-3,0
STARLINK-36182,2025-304A,2026-07-02T07:26:58.095168,14.98335644,.0003648,69.9993,245.4647,269.4006,90.6735,0,U,67192,999,3102,.27685457E-3,.3212E-4,0
STARLINK-36279,2025-304B,2026-07-02T07:20:42.364032,14.98327828,.00038339,69.9998,245.4447,268.5559,91.5161,0,U,67193,999,3105,-.31466641E-3,-.3846E-4,0
STARLINK-36284,2025-304C,2026-07-02T06:14:38.287968,14.98334969,.00035914,70.0000,245.6904,268.4411,91.6337,0,U,67194,999,3104,.21406351E-3,.2462E-4,0
STARLINK-36291,2025-304D,2026-07-02T06:38:55.029984,14.98337339,.00036388,70.0002,245.7446,270.6311,89.4431,0,U,67195,999,3104,.23107155E-3,.2666E-4,0
STARLINK-36239,2025-304E,2026-07-02T06:32:40.080768,14.98337030,.00036506,70.0006,245.7351,270.8169,89.2572,0,U,67196,999,3104,.21754879E-3,.2504E-4,0
STARLINK-36283,2025-304F,2026-07-02T06:56:40.387776,14.98334787,.00036335,70.0003,245.3856,267.6287,92.4456,0,U,67197,999,3105,.18251525E-3,.2086E-4,0
STARLINK-36267,2025-304G,2026-07-02T06:02:37.030272,14.98335381,.00036172,69.9998,245.6570,268.4669,91.6076,0,U,67198,999,3101,.24779434E-3,.2865E-4,0
STARLINK-36268,2025-304H,2026-07-02T06:14:52.575936,14.98335614,.00035435,70.0003,245.6844,268.8508,91.2245,0,U,67199,999,3103,.21586181E-3,.2484E-4,0
STARLINK-36270,2025-304J,2026-07-02T07:14:56.772672,14.98334137,.00035031,70.0001,245.4375,270.4401,89.6357,0,U,67200,999,3105,.18686318E-3,.2138E-4,0
STARLINK-36262,2025-304K,2026-07-02T06:26:40.479648,14.98332065,.00038053,69.9999,245.7174,268.9784,91.0939,0,U,67201,999,3104,.33782693E-3,.394E-4,0
STARLINK-36263,2025-304L,2026-07-02T06:08:39.695136,14.98293980,.00032035,69.9999,245.6726,275.3777,84.7017,0,U,67202,999,3104,-.67420254E-3,-.8121E-4,0
STARLINK-36224,2025-304M,2026-07-02T07:32:44.377728,14.98334846,.00036207,69.9992,245.4663,268.5804,91.4940,0,U,67203,999,3105,.23353698E-3,.2695E-4,0
STARLINK-36185,2025-304N,2026-07-02T07:08:41.765568,14.98333387,.00038199,69.9997,245.4138,268.4322,91.6400,0,U,67204,999,3105,.12866758E-3,.1443E-4,0
STARLINK-36197,2025-304P,2026-07-02T06:50:39.749856,14.98336946,.00033252,70.0003,245.3718,264.4650,95.6130,0,U,67205,999,3102,.18370953E-3,.21E-4,0
STARLINK-36056,2025-304Q,2026-07-02T06:26:53.835360,14.98335802,.00037076,69.9997,245.7127,270.1281,89.9454,0,U,67206,999,3101,.21105503E-3,.2427E-4,0
STARLINK-36225,2025-304R,2026-07-02T06:02:51.224928,14.98335666,.00038089,69.9993,245.6520,268.5366,91.5357,0,U,67207,999,3104,.25688139E-3,.2974E-4,0
STARLINK-36265,2025-304S,2026-07-02T06:20:38.916384,14.98337961,.00031206,69.9998,245.7033,270.7916,89.2885,0,U,67208,999,3104,.25931966E-3,.3003E-4,0
STARLINK-36226,2025-304T,2026-07-02T06:38:40.695360,14.98337503,.00037924,70.0001,245.7471,269.8695,90.2030,0,U,67209,999,3104,.22843593E-3,.2634E-4,0
STARLINK-36173,2025-304U,2026-07-02T07:26:42.653760,14.98331359,.00034579,70.0002,245.4584,272.5240,87.5523,0,U,67210,999,3105,-.56171273E-3,-.6789E-4,0
STARLINK-36280,2025-304V,2026-07-02T07:14:42.450144,14.98332873,.00035599,69.9993,245.4304,270.7951,89.2800,0,U,67211,999,3105,.12476469E-3,.1396E-4,0
STARLINK-36213,2025-304W,2026-07-02T07:02:41.034336,14.98335164,.00038343,70.0003,245.3996,269.1249,90.9470,0,U,67212,999,3105,.19829794E-3,.2274E-4,0
STARLINK-36199,2025-304X,2026-07-02T06:44:38.981472,14.98329621,.00035913,70.0001,245.3558,266.2159,93.8589,0,U,67213,999,3105,.36071818E-3,.4214E-4,0
STARLINK-36203,2025-304Y,2026-07-02T06:32:54.316032,14.98337781,.00036173,69.9999,245.7274,269.5716,90.5029,0,U,67214,999,3104,.24359001E-3,.2815E-4,0
STARLINK-36221,2025-304Z,2026-07-02T06:20:53.583648,14.98341806,.00033139,69.9995,245.6965,269.2558,90.8221,0,U,67215,999,3104,.50181072E-3,.5901E-4,0
STARLINK-36212,2025-304AA,2026-07-02T06:08:51.888768,14.98336371,.00037559,70.0000,245.6672,268.8347,91.2381,0,U,67216,999,3104,.26002818E-3,.3012E-4,0
STARLINK-36216,2025-304AB,2026-07-02T07:32:58.652736,14.98334967,.00036163,70.0000,245.4698,268.1327,91.9418,0,U,67217,999,3104,.22701728E-3,.2617E-4,0
STARLINK-36211,2025-304AC,2026-07-02T07:20:57.358752,14.98333912,.0003797,69.9996,245.4392,267.8232,92.2492,0,U,67218,999,3102,.21155374E-3,.2432E-4,0
DISKSAT C,2025-305A,2026-07-02T04:43:48.905184,15.10057475,.00072316,45.0036,3.2405,253.3014,106.7068,0,U,67219,999,2959,.6147625E-3,.9936E-4,0
DISKSAT B,2025-305B,2026-07-01T19:09:32.527296,15.08833440,.00054712,45.0036,6.1528,246.8556,113.1744,0,U,67220,999,2952,.22760438E-3,.3396E-4,0
DISKSAT D,2025-305C,2026-07-01T20:36:20.968128,15.09132132,.0006108,45.0040,5.7633,252.3933,107.6276,0,U,67221,999,2953,.28929614E-3,.4421E-4,0
DISKSAT A,2025-305D,2026-07-02T05:10:54.146208,15.09794810,.00066943,45.0021,3.3783,256.2278,103.7853,0,U,67222,999,2958,.53379043E-3,.8529E-4,0
TJS-23,2025-306A,2026-07-01T13:30:19.696608,1.00272170,.00046197,5.5554,297.4129,185.0367,175.2055,0,U,67226,999,203,0,.31E-6,0
QPS-SAR-15 (SUKUNAMI-I),2025-307A,2026-07-02T03:56:19.999104,14.99102978,.0008808,42.0051,145.6458,94.1777,266.0055,0,U,67228,999,2893,.44427807E-3,.5311E-4,0
SPACEMOBILE-006,2025-309A,2026-07-01T22:00:30.409632,15.18620825,.00108578,52.9976,264.1625,171.7701,188.3473,0,U,67232,999,2883,.14362886E-3,.2692E-4,0
OBZOR-R 1,2025-310A,2026-06-29T13:36:15.486624,14.75889567,.00013181,97.9639,187.6759,91.4591,268.6769,0,U,67234,999,2745,.27496775E-4,.139E-5,0
HULIANWANG DIGUI-128,2025-311A,2026-07-01T22:07:45.065568,13.29323196,.00009785,50.0092,62.7070,25.1631,334.9289,0,U,67236,999,2530,.91051623E-4,-.82E-6,0
HULIANWANG DIGUI-129,2025-311B,2026-07-01T22:19:41.729376,13.29324442,.00009243,50.0080,62.7327,26.0976,333.9943,0,U,67237,999,2530,.10318126E-3,-.76E-6,0
HULIANWANG DIGUI-130,2025-311C,2026-07-01T23:31:56.172000,13.29323078,.00010135,50.0059,62.9566,24.9728,335.1193,0,U,67238,999,2530,.97736495E-4,-.79E-6,0
HULIANWANG DIGUI-131,2025-311D,2026-07-01T21:55:43.329216,13.29322872,.00010286,50.0057,63.2622,25.1182,334.9740,0,U,67239,999,2529,.79350929E-4,-.87E-6,0
HULIANWANG DIGUI-132,2025-311E,2026-07-01T23:07:51.378240,13.29323546,.00009788,50.0067,62.8826,22.7812,337.3103,0,U,67240,999,2530,.84709819E-4,-.85E-6,0
HULIANWANG DIGUI-133,2025-311F,2026-07-01T22:43:49.897056,13.29323512,.00009517,50.0110,62.8661,24.8970,335.1948,0,U,67241,999,2530,.96934989E-4,-.79E-6,0
HULIANWANG DIGUI-134,2025-311G,2026-07-01T22:55:49.094112,13.29323225,.00009785,50.0040,62.8005,25.1981,334.8939,0,U,67242,999,2530,.9977606E-4,-.78E-6,0
HULIANWANG DIGUI-135,2025-311H,2026-07-01T23:19:52.787136,13.29323048,.00010009,50.0028,62.8643,23.4438,336.6480,0,U,67243,999,2530,.84391564E-4,-.85E-6,0
HULIANWANG DIGUI-136,2025-311J,2026-07-02T02:08:15.922752,13.29324018,.00009175,50.0101,62.2653,25.9004,334.1914,0,U,67244,999,2532,.11001003E-3,-.73E-6,0
FENGYUN 4C,2025-312A,2026-06-30T16:25:12.487584,1.00270776,.00007061,0.0471,163.2991,4.6384,130.1121,0,U,67246,999,191,0,-.312E-5,0
2025-313A,2025-313A,2026-07-02T04:40:41.691072,14.67298297,.02759259,97.5421,246.3967,288.6792,68.4646,0,U,67248,999,2722,.81007373E-4,.746E-5,0
2025-313B,2025-313B,2026-07-02T04:00:31.428288,14.74315842,.02909128,97.5110,247.5052,286.6512,70.2948,0,U,67249,999,2734,.11474066E-3,.144E-4,0
2025-313C,2025-313C,2026-07-02T03:43:31.659456,14.88998206,.01483577,97.6158,253.3043,287.2249,71.2777,0,U,67250,999,2758,.73833255E-3,.8479E-4,0
2025-313D,2025-313D,2026-07-02T04:33:59.419584,14.89677460,.01469979,97.5684,252.8785,277.3566,81.0967,0,U,67251,999,2763,.14148715E-3,.1593E-4,0
ZORKIY-2M-VPE,2025-313E,2026-07-02T05:09:42.270048,15.24463868,.00084612,97.3940,258.0102,293.5993,66.4356,0,U,67252,999,2826,.36309945E-3,.8857E-4,0
AIST-2T 1,2025-313F,2026-07-02T05:55:27.750144,15.60771686,.00071933,97.0836,260.8413,180.7620,179.3628,0,U,67253,999,2897,.39261331E-3,.32666E-3,0
AIST-2T 2,2025-313G,2026-07-02T05:09:33.539328,15.60880193,.00068313,97.0832,260.7311,160.4904,199.6617,0,U,67254,999,2895,.35160205E-3,.29349E-3,0
2025-313H,2025-313H,2026-07-02T04:23:23.437824,15.07169700,.00667444,97.2859,250.3088,282.9727,76.4054,0,U,67255,999,2791,.16433921E-3,.2536E-4,0
SITRO-AIS-57,2025-313J,2026-07-02T04:33:40.736448,15.23401736,.00140681,97.3923,257.5563,312.5413,47.4635,0,U,67256,999,2823,.42528748E-3,.10081E-3,0
SITRO-AIS-59,2025-313K,2026-07-02T04:39:21.142080,15.23319911,.00139401,97.3929,257.5669,314.9680,45.0426,0,U,67257,999,2823,.42413579E-3,.10029E-3,0
